STARLINK-31266          
1 59087U 24041P   26068.03748367  .00002571  00000+0  10287-3 0  9995
2 59087  42.9975 314.2272 0000306  17.3505 342.7357 15.27591409114222
KUIPER-00226            
1 67785U 26030X   26068.62629313  .00046834  00000+0  15530-2 0  9998
2 67785  51.8814 220.1252 0017713  64.2781 296.0030 15.30655594  5078
